{"epoch":1784762836,"count":18316,"objects":[{"id":"58516","name":"STARLINK-31028","type":"PAYLOAD","l1":"1 58516U 23191J   26202.91704534 -.00001071  00000-0 -29386-4 0  9999","l2":"2 58516  43.0006  65.0490 0000964 263.8142  96.2600 15.27589382146003"},{"id":"58517","name":"STARLINK-31011","type":"PAYLOAD","l1":"1 58517U 23191K   26203.30549905 -.00003216  00000-0 -10729-3 0  9996","l2":"2 58517  43.0026  62.8125 0001623 277.4570  82.6097 15.27606337146060"},{"id":"58518","name":"STARLINK-31021","type":"PAYLOAD","l1":"1 58518U 23191L   26203.61331655  .00000263  00000-0  19067-4 0  9994","l2":"2 58518  43.0029  61.6488 0001270 268.8487  91.2219 15.27579405146104"},{"id":"58519","name":"STARLINK-31010","type":"PAYLOAD","l1":"1 58519U 23191M   26202.04018294 -.00000183  00000-0  28885-5 0  9993","l2":"2 58519  43.0034  70.4488 0001436 267.4670  92.6017 15.27575442145862"},{"id":"58520","name":"STARLINK-31003","type":"PAYLOAD","l1":"1 58520U 23191N   26203.30423202  .00006235  00000-0  23603-3 0  9998","l2":"2 58520  43.0020  62.7997 0000606 285.8495  74.2290 15.27561814146065"},{"id":"58521","name":"STARLINK-31015","type":"PAYLOAD","l1":"1 58521U 23191P   26203.30808325  .00028145  00000-0  10274-2 0  9995","l2":"2 58521  43.0008  62.8317 0001730 277.0802  82.9853 15.27609989146037"},{"id":"58523","name":"STARLINK-30932","type":"PAYLOAD","l1":"1 58523U 23191R   26202.92347503  .00000682  00000-0  34308-4 0  9992","l2":"2 58523  43.0034  65.0973 0001017 283.0757  76.9981 15.27579136145950"},{"id":"58524","name":"STARLINK-30992","type":"PAYLOAD","l1":"1 58524U 23191S   26202.92732506  .00004031  00000-0  15595-3 0  9992","l2":"2 58524  43.0061  65.1215 0001488 263.7090  96.3592 15.27577123146003"},{"id":"58525","name":"STARLINK-30948","type":"PAYLOAD","l1":"1 58525U 23191T   26203.58374630  .00001454  00000-0  62322-4 0  9993","l2":"2 58525  43.0014  61.4529 0000676 270.4079  89.6695 15.27591931146102"},{"id":"58526","name":"STARLINK-31013","type":"PAYLOAD","l1":"1 58526U 23191U   26202.06284620  .00012064  00000-0  72243-3 0  9996","l2":"2 58526  42.9995  93.6750 0008819 193.6925 166.3682 15.10938416145591"},{"id":"58527","name":"STARLINK-31001","type":"PAYLOAD","l1":"1 58527U 23191V   26203.60306076 -.00003480  00000-0 -11710-3 0  9994","l2":"2 58527  43.0055  61.5026 0002170 285.6772  74.3841 15.27548607146107"},{"id":"58528","name":"STARLINK-31004","type":"PAYLOAD","l1":"1 58528U 23191W   26203.32608471  .00004185  00000-0  16151-3 0  9993","l2":"2 58528  43.0014  62.9542 0000283  50.2022 309.8854 15.27581735146062"},{"id":"58529","name":"STARLINK-30988","type":"PAYLOAD","l1":"1 58529U 23191X   26203.59147647 -.00000266  00000-0 -12751-6 0  9999","l2":"2 58529  43.0041  61.5039 0001051 270.1789  89.8943 15.27575789146107"},{"id":"58530","name":"STARLINK-31009","type":"PAYLOAD","l1":"1 58530U 23191Y   26203.59533153 -.00000184  00000-0  28481-5 0  9996","l2":"2 58530  43.0049  61.5328 0001118 272.8187  87.2537 15.27577063146123"},{"id":"58531","name":"STARLINK-31012","type":"PAYLOAD","l1":"1 58531U 23192A   26203.29272013  .00001321  00000-0  50221-4 0  9999","l2":"2 58531  53.1627 156.8211 0001554  69.0096 291.1073 15.34403189146605"},{"id":"58532","name":"STARLINK-31035","type":"PAYLOAD","l1":"1 58532U 23192B   26203.11980668  .00001383  00000-0  52051-4 0  9994","l2":"2 58532  53.1613 143.6517 0001403  85.3595 274.7567 15.34400486146772"},{"id":"58533","name":"STARLINK-31036","type":"PAYLOAD","l1":"1 58533U 23192C   26203.13882122  .00000485  00000-0  25499-4 0  9991","l2":"2 58533  53.1597 155.8952 0001483  91.7090 268.4083 15.34398247146607"},{"id":"58534","name":"STARLINK-30936","type":"PAYLOAD","l1":"1 58534U 23192D   26203.28078470  .00000016  00000-0  12260-4 0  9993","l2":"2 58534  53.1590 146.8325 0001091 110.6568 249.4550 15.31714765146748"},{"id":"58535","name":"STARLINK-31032","type":"PAYLOAD","l1":"1 58535U 23192E   26203.56532028  .00000943  00000-0  39050-4 0  9994","l2":"2 58535  53.1605 153.5483 0001730  64.4082 295.7099 15.34394043146673"},{"id":"58536","name":"STARLINK-31037","type":"PAYLOAD","l1":"1 58536U 23192F   26203.15986167  .00000163  00000-0  15964-4 0  9999","l2":"2 58536  53.1604 156.0180 0001135  94.0049 266.1083 15.34398723146603"},{"id":"58537","name":"STARLINK-31041","type":"PAYLOAD","l1":"1 58537U 23192G   26203.55698972 -.00000206  00000-0  50379-5 0  9997","l2":"2 58537  53.1603 154.2061 0001455  74.9496 285.1667 15.34396708146665"},{"id":"58538","name":"STARLINK-31014","type":"PAYLOAD","l1":"1 58538U 23192H   26203.14092052  .00001130  00000-0  44584-4 0  9996","l2":"2 58538  53.1599 155.8766 0001381  83.0937 277.0223 15.34399968146601"},{"id":"58539","name":"STARLINK-31055","type":"PAYLOAD","l1":"1 58539U 23192J   26203.19343130  .00002220  00000-0  76818-4 0  9994","l2":"2 58539  53.1604 155.4928 0001433  74.3952 285.7208 15.34402663146610"},{"id":"58540","name":"STARLINK-31019","type":"PAYLOAD","l1":"1 58540U 23192K   26203.28381823  .00000349  00000-0  21474-4 0  9995","l2":"2 58540  53.1594 155.3455 0001368  90.3161 269.7998 15.34400033146629"},{"id":"58541","name":"STARLINK-31045","type":"PAYLOAD","l1":"1 58541U 23192L   26203.30301872  .00002398  00000-0  93055-4 0  9995","l2":"2 58541  53.1573 234.3149 0000908  73.8719 286.2381 15.30202249145500"},{"id":"58542","name":"STARLINK-31030","type":"PAYLOAD","l1":"1 58542U 23192M   26203.58635626 -.00004872  00000-0 -13324-3 0  9994","l2":"2 58542  53.1590 153.6787 0001341  90.3782 269.7374 15.34379456146673"},{"id":"58543","name":"STARLINK-31049","type":"PAYLOAD","l1":"1 58543U 23192N   26203.58846175  .00000686  00000-0  31459-4 0  9995","l2":"2 58543  53.1584 153.6924 0001423  96.0053 264.1112 15.34394167146670"},{"id":"58544","name":"STARLINK-31048","type":"PAYLOAD","l1":"1 58544U 23192P   26203.57220016  .00006324  00000-0  19814-3 0  9990","l2":"2 58544  53.1590 155.6758 0001086  83.4953 276.6173 15.34398110146643"},{"id":"58545","name":"STARLINK-31057","type":"PAYLOAD","l1":"1 58545U 23192Q   26203.13671272  .00000628  00000-0  29716-4 0  9991","l2":"2 58545  53.1590 155.8490 0001393  95.7907 264.3255 15.34398484146600"},{"id":"58546","name":"STARLINK-31050","type":"PAYLOAD","l1":"1 58546U 23192R   26203.28591951  .00000746  00000-0  33220-4 0  9999","l2":"2 58546  53.1599 155.3574 0001209  84.5551 275.5589 15.34405453146626"}]}