OBJECT_NAME,OBJECT_ID,EPOCH,MEAN_MOTION,ECCENTRICITY,INCLINATION,RA_OF_ASC_NODE,ARG_OF_PERICENTER,MEAN_ANOMALY,EPHEMERIS_TYPE,CLASSIFICATION_TYPE,NORAD_CAT_ID,ELEMENT_SET_NO,REV_AT_EPOCH,BSTAR,MEAN_MOTION_DOT,MEAN_MOTION_DDOT
STARLINK-31028,2023-191J,2026-07-21T22:00:32.717376,15.27589382,.00009645,43.0006,65.0490,263.8142,96.2600,0,U,58516,999,14600,-.29385713E-4,-.1071E-4,0
STARLINK-31011,2023-191K,2026-07-22T07:19:55.117920,15.27606337,.00016234,43.0026,62.8125,277.4570,82.6097,0,U,58517,999,14606,-.10728589E-3,-.3216E-4,0
STARLINK-31021,2023-191L,2026-07-22T14:43:10.549920,15.27579405,.000127,43.0029,61.6488,268.8487,91.2219,0,U,58518,999,14610,.19066896E-4,.263E-5,0
STARLINK-31010,2023-191M,2026-07-21T00:57:51.806016,15.27575442,.00014362,43.0034,70.4488,267.4670,92.6017,0,U,58519,999,14586,.2888451E-5,-.183E-5,0
STARLINK-31003,2023-191N,2026-07-22T07:18:05.646528,15.27561814,.00006056,43.0020,62.7997,285.8495,74.2290,0,U,58520,999,14606,.23602752E-3,.6235E-4,0
STARLINK-31015,2023-191P,2026-07-22T07:23:38.392800,15.27609989,.00017304,43.0008,62.8317,277.0802,82.9853,0,U,58521,999,14603,.10274329E-2,.28145E-3,0
STARLINK-30932,2023-191R,2026-07-21T22:09:48.242592,15.27579136,.00010175,43.0034,65.0973,283.0757,76.9981,0,U,58523,999,14595,.343079E-4,.682E-5,0
STARLINK-30992,2023-191S,2026-07-21T22:15:20.885184,15.27577123,.00014879,43.0061,65.1215,263.7090,96.3592,0,U,58524,999,14600,.15595151E-3,.4031E-4,0
STARLINK-30948,2023-191T,2026-07-22T14:00:35.680320,15.27591931,.00006764,43.0014,61.4529,270.4079,89.6695,0,U,58525,999,14610,.62321565E-4,.1454E-4,0
STARLINK-31013,2023-191U,2026-07-21T01:30:29.911680,15.10938416,.00088186,42.9995,93.6750,193.6925,166.3682,0,U,58526,999,14559,.72243104E-3,.12064E-3,0
STARLINK-31001,2023-191V,2026-07-22T14:28:24.449664,15.27548607,.00021695,43.0055,61.5026,285.6772,74.3841,0,U,58527,999,14610,-.11709764E-3,-.348E-4,0
STARLINK-31004,2023-191W,2026-07-22T07:49:33.718944,15.27581735,.00002835,43.0014,62.9542,50.2022,309.8854,0,U,58528,999,14606,.1615095E-3,.4185E-4,0
STARLINK-30988,2023-191X,2026-07-22T14:11:43.567008,15.27575789,.0001051,43.0041,61.5039,270.1789,89.8943,0,U,58529,999,14610,-.127505E-6,-.266E-5,0
STARLINK-31009,2023-191Y,2026-07-22T14:17:16.644192,15.27577063,.0001118,43.0049,61.5328,272.8187,87.2537,0,U,58530,999,14612,.2848114E-5,-.184E-5,0
STARLINK-31012,2023-192A,2026-07-22T07:01:31.019232,15.34403189,.00015538,53.1627,156.8211,69.0096,291.1073,0,U,58531,999,14660,.50221228E-4,.1321E-4,0
STARLINK-31035,2023-192B,2026-07-22T02:52:31.297152,15.34400486,.00014028,53.1613,143.6517,85.3595,274.7567,0,U,58532,999,14677,.52051399E-4,.1383E-4,0
STARLINK-31036,2023-192C,2026-07-22T03:19:54.153408,15.34398247,.00014829,53.1597,155.8952,91.7090,268.4083,0,U,58533,999,14660,.25498638E-4,.485E-5,0
STARLINK-30936,2023-192D,2026-07-22T06:44:19.798080,15.31714765,.00010908,53.1590,146.8325,110.6568,249.4550,0,U,58534,999,14674,.12260473E-4,.16E-6,0
STARLINK-31032,2023-192E,2026-07-22T13:34:03.672192,15.34394043,.000173,53.1605,153.5483,64.4082,295.7099,0,U,58535,999,14667,.39050058E-4,.943E-5,0
STARLINK-31037,2023-192F,2026-07-22T03:50:12.048288,15.34398723,.00011346,53.1604,156.0180,94.0049,266.1083,0,U,58536,999,14660,.15964326E-4,.163E-5,0
STARLINK-31041,2023-192G,2026-07-22T13:22:03.911808,15.34396708,.00014554,53.1603,154.2061,74.9496,285.1667,0,U,58537,999,14666,.5037922E-5,-.206E-5,0
STARLINK-31014,2023-192H,2026-07-22T03:22:55.532928,15.34399968,.00013805,53.1599,155.8766,83.0937,277.0223,0,U,58538,999,14660,.44584439E-4,.113E-4,0
STARLINK-31055,2023-192J,2026-07-22T04:38:32.464320,15.34402663,.0001433,53.1604,155.4928,74.3952,285.7208,0,U,58539,999,14661,.76818487E-4,.222E-4,0
STARLINK-31019,2023-192K,2026-07-22T06:48:41.895072,15.34400033,.00013677,53.1594,155.3455,90.3161,269.7998,0,U,58540,999,14662,.2147354E-4,.349E-5,0
STARLINK-31045,2023-192L,2026-07-22T07:16:20.817408,15.30202249,.0000908,53.1573,234.3149,73.8719,286.2381,0,U,58541,999,14550,.93054619E-4,.2398E-4,0
STARLINK-31030,2023-192M,2026-07-22T14:04:21.180864,15.34379456,.00013405,53.1590,153.6787,90.3782,269.7374,0,U,58542,999,14667,-.13324421E-3,-.4872E-4,0
STARLINK-31049,2023-192N,2026-07-22T14:07:23.095200,15.34394167,.00014228,53.1584,153.6924,96.0053,264.1112,0,U,58543,999,14667,.31459302E-4,.686E-5,0
STARLINK-31048,2023-192P,2026-07-22T13:43:58.093824,15.34398110,.00010861,53.1590,155.6758,83.4953,276.6173,0,U,58544,999,14664,.19814481E-3,.6324E-4,0
STARLINK-31057,2023-192Q,2026-07-22T03:16:51.979008,15.34398484,.00013926,53.1590,155.8490,95.7907,264.3255,0,U,58545,999,14660,.29716471E-4,.628E-5,0
STARLINK-31050,2023-192R,2026-07-22T06:51:43.445664,15.34405453,.00012089,53.1599,155.3574,84.5551,275.5589,0,U,58546,999,14662,.33220219E-4,.746E-5,0
